ASTRA 1M                
1 33436U 08057A   26194.35099720  .00000117  00000+0  00000+0 0  9993
2 33436   0.3613  82.7472 0004378  40.6099 313.6223  1.00268561 45990
EUTELSAT HOTBIRD 13C    
1 33459U 08065A   26194.47975207 -.00000289  00000+0  00000+0 0  9994
2 33459   3.0155  78.8797 0003321  35.7654 299.1140  1.00271283 47602
EXPRESS-AM44            
1 33595U 09007A   26194.34493051 -.00000096  00000+0  00000+0 0  9996
2 33595   3.5271  78.0732 0003671  28.3613 297.9405  1.00271045 52544
NSS-9                   
1 33749U 09008A   26194.53373660  .00000066  00000+0  00000+0 0  9998
2 33749   1.3274  82.3970 0001835  20.0798 204.1338  1.00271316 63783
TELSTAR 11N             
1 34111U 09009A   26194.41098323 -.00000254  00000+0  00000+0 0  9990
2 34111   0.0405 263.8026 0002269 204.7411 293.1331  1.00269443 46502
WGS F2 (USA 204)        
1 34713U 09017A   26194.21597284  .00000066  00000+0  00000+0 0  9995
2 34713   0.0178  29.0199 0000415 192.8697 204.4481  1.00271869 45879
SES-7 (PROTOSTAR 2)     
1 34941U 09027A   26194.51112156 -.00000348  00000+0  00000+0 0  9997
2 34941   0.0280  62.6835 0000533 172.5699 348.3701  1.00268999 62898
MEASAT-3A               
1 35362U 09032A   26194.50947581 -.00000115  00000+0  00000+0 0  9990
2 35362   0.0371 315.1108 0002574 146.3561 173.3120  1.00269878  8292
GOES 14                 
1 35491U 09033A   26194.22957956 -.00000361  00000+0  00000+0 0  9993
2 35491   1.7544  82.7178 0001865  40.7065  16.6294  1.00099025  6853
FM-5                    
1 35493U 09034A   26193.90237249 -.00000201  00000+0  00000+0 0  9999
2 35493   0.0416 268.2075 0000668  72.2071 189.0649  1.00271288 46901
TERRESTAR-1             
1 35496U 09035A   26194.09583291 -.00000062  00000+0  00000+0 0  9990
2 35496   5.1981  48.7741 0002522  55.0331 110.6740  1.00270891 62399
ASIASAT 5               
1 35696U 09042A   26194.50964823 -.00000311  00000+0  00000+0 0  9997
2 35696   0.0050 323.7624 0001597 124.8898 126.7122  1.00273452 61973
JCSAT-12 (JCSAT-RA)     
1 35755U 09044A   26194.51588824 -.00000332  00000+0  00000+0 0  9992
2 35755   0.0346 288.7024 0000691 287.2028  33.2521  1.00269866 61872
OPTUS D3                
1 35756U 09044B   26193.95034191 -.00000147  00000+0  00000+0 0  9997
2 35756   0.8917 268.2973 0002923 204.5770 316.2131  1.00268614 61823
NIMIQ 5                 
1 35873U 09050A   26194.29298410 -.00000260  00000+0  00000+0 0  9994
2 35873   0.0504 252.3655 0002519 215.0853 216.4925  1.00271316 61609
AMAZONAS 2              
1 35942U 09054A   26194.29741524 -.00000264  00000+0  00000+0 0  9998
2 35942   1.8806  82.7129 0003125  31.4951 212.0432  1.00270465 61445
COMSATBW-1              
1 35943U 09054B   26194.14576728  .00000023  00000+0  00000+0 0  9997
2 35943   0.0626 182.1086 0002604 290.9186 293.5046  1.00269266 61562
NSS-12                  
1 36032U 09058A   26194.50098551  .00000068  00000+0  00000+0 0  9993
2 36032   0.0979 269.4506 0004655 167.2154  92.0478  1.00273327 61180
THOR 6                  
1 36033U 09058B   26194.34701051 -.00000013  00000+0  00000+0 0  9993
2 36033   0.0032 291.9851 0001535 175.3853 307.9300  1.00270519 61265
INTELSAT 14 (IS-14)     
1 36097U 09064A   26194.12436051 -.00000276  00000+0  00000+0 0  9992
2 36097   0.0155  42.2389 0002221  77.1990 171.3473  1.00270601 60869
EUTELSAT 36B            
1 36101U 09065A   26194.14325394  .00000109  00000+0  00000+0 0  9992
2 36101   0.5542  81.3092 0005702  32.2105 279.5647  1.00272905 60966
INTELSAT 15 (IS-15)     
1 36106U 09067A   26194.12316917 -.00000187  00000+0  00000+0 0  9995
2 36106   0.0182  63.6977 0002085  57.3947 299.4048  1.00270933 41485
WGS F3 (USA 211)        
1 36108U 09068A   26193.75105582  .00000064  00000+0  00000+0 0  9993
2 36108   0.3000  85.6429 0000552 112.9106 232.4791  1.00268694 46845
DIRECTV 12              
1 36131U 09075A   26193.89907914 -.00000104  00000+0  00000+0 0  9997
2 36131   0.0059 118.1538 0000376 110.5275 283.0374  1.00271042 46817
BEIDOU-2 G1             
1 36287U 10001A   26194.51753493 -.00000287  00000+0  00000+0 0  9993
2 36287   4.3521  60.3096 0001882 288.7514 269.0997  1.00272604 60438
SDO                     
1 36395U 10005A   26194.20034537 -.00000107  00000+0  00000+0 0  9995
2 36395  34.7041  85.9474 0001955  51.9513 123.0341  1.00277100 60321
INTELSAT 16 (IS-16)     
1 36397U 10006A   26194.47463872 -.00000248  00000+0  00000+0 0  9991
2 36397   0.0117  19.8432 0002282 117.3052 248.8664  1.00270436 59914
EWS-G2 (GOES 15)        
1 36411U 10008A   26193.89142229  .00000020  00000+0  00000+0 0  9992
2 36411   1.3455  82.4942 0005186  53.7092 178.8248  1.00268270 59895
ECHOSTAR 14             
1 36499U 10010A   26194.51009310 -.00000003  00000+0  00000+0 0  9996
2 36499   0.0454 254.7949 0001874 198.7889 262.5164  1.00270872 46818
SES-1                   
1 36516U 10016A   26194.52472103 -.00000118  00000+0  00000+0 0  9994
2 36516   0.0400 288.3512 0002355 182.9785 267.9608  1.00271629 59292
ASTRA 3B                
1 36581U 10021A   26194.35169053  .00000132  00000+0  00000+0 0  9995
2 36581   1.5350  83.2412 0004443  19.2704 338.8343  1.00269327 59126
COMSATBW-2              
1 36582U 10021B   26194.27842833  .00000086  00000+0  00000+0 0  9999
2 36582   0.0498 121.0554 0002357  11.3660 272.1896  1.00273105 59210
